YAM-10                  
1 64580U 25135BE  26193.90094360  .00000791  00000+0  83752-4 0  9996
2 64580  97.7751 307.3994 0001667 260.2192  99.8838 14.91896882 57696
YAM-11                  
1 68991U 26100M   26193.96638439  .00000722  00000+0  79448-4 0  9997
2 68991  97.7339  90.7862 0009853   8.6853 351.4534 14.90566605 10536
YAM-16                  
1 68992U 26100N   26193.71228080  .00000793  00000+0  84685-4 0  9995
2 68992  97.7342  90.6615 0004844  68.0240 292.1493 14.91510459 10500
YAM-13                  
1 68993U 26100P   26193.72011660  .00000825  00000+0  90340-4 0  9992
2 68993  97.7341  90.6506 0009834   6.8991 353.2361 14.90406317 10505
YAM-15                  
1 68997U 26100T   26193.70702557  .00000716  00000+0  78642-4 0  9996
2 68997  97.7333  90.6618 0009643  19.9659 340.1935 14.90648800 10505
YAM-12                  
1 69003U 26100Z   26194.15077682  .00002148  00000+0  22593-3 0  9993
2 69003  97.7327  90.9856 0010114 357.3550   2.7613 14.90421509 10552
YAM-14                  
1 69008U 26100AE  26194.14357461  .00000812  00000+0  89121-4 0  9990
2 69008  97.7320  91.0014 0006238  42.5235 317.6465 14.90344498 10557
