{"fetched_at":"2026-07-13T11:10:56.637Z","source":"https://celestrak.org/NORAD/elements/gp.php?NAME=YAM&FORMAT=JSON","constellation":"earthdaily-constellation","records":[{"OBJECT_NAME":"YAM-10","OBJECT_ID":"2025-135BE","EPOCH":"2026-07-12T21:37:21.527040","CLASSIFICATION_TYPE":"U","MEAN_MOTION":14.91896882,"ECCENTRICITY":0.0001667,"INCLINATION":97.7751,"RA_OF_ASC_NODE":307.3994,"ARG_OF_PERICENTER":260.2192,"MEAN_ANOMALY":99.8838,"EPHEMERIS_TYPE":0,"NORAD_CAT_ID":64580,"ELEMENT_SET_NO":999,"REV_AT_EPOCH":5769,"BSTAR":0.000083752,"MEAN_MOTION_DOT":0.00000791,"MEAN_MOTION_DDOT":0},{"OBJECT_NAME":"YAM-11","OBJECT_ID":"2026-100M","EPOCH":"2026-07-12T23:11:35.611296","CLASSIFICATION_TYPE":"U","MEAN_MOTION":14.90566605,"ECCENTRICITY":0.0009853,"INCLINATION":97.7339,"RA_OF_ASC_NODE":90.7862,"ARG_OF_PERICENTER":8.6853,"MEAN_ANOMALY":351.4534,"EPHEMERIS_TYPE":0,"NORAD_CAT_ID":68991,"ELEMENT_SET_NO":999,"REV_AT_EPOCH":1053,"BSTAR":0.000079448,"MEAN_MOTION_DOT":0.00000722,"MEAN_MOTION_DDOT":0},{"OBJECT_NAME":"YAM-16","OBJECT_ID":"2026-100N","EPOCH":"2026-07-12T17:05:41.061120","CLASSIFICATION_TYPE":"U","MEAN_MOTION":14.91510459,"ECCENTRICITY":0.0004844,"INCLINATION":97.7342,"RA_OF_ASC_NODE":90.6615,"ARG_OF_PERICENTER":68.024,"MEAN_ANOMALY":292.1493,"EPHEMERIS_TYPE":0,"NORAD_CAT_ID":68992,"ELEMENT_SET_NO":999,"REV_AT_EPOCH":1050,"BSTAR":0.000084685,"MEAN_MOTION_DOT":0.00000793,"MEAN_MOTION_DDOT":0},{"OBJECT_NAME":"YAM-13","OBJECT_ID":"2026-100P","EPOCH":"2026-07-12T17:16:58.074240","CLASSIFICATION_TYPE":"U","MEAN_MOTION":14.90406317,"ECCENTRICITY":0.0009834,"INCLINATION":97.7341,"RA_OF_ASC_NODE":90.6506,"ARG_OF_PERICENTER":6.8991,"MEAN_ANOMALY":353.2361,"EPHEMERIS_TYPE":0,"NORAD_CAT_ID":68993,"ELEMENT_SET_NO":999,"REV_AT_EPOCH":1050,"BSTAR":0.00009034,"MEAN_MOTION_DOT":0.00000825,"MEAN_MOTION_DDOT":0},{"OBJECT_NAME":"YAM-15","OBJECT_ID":"2026-100T","EPOCH":"2026-07-12T16:58:07.009248","CLASSIFICATION_TYPE":"U","MEAN_MOTION":14.906488,"ECCENTRICITY":0.0009643,"INCLINATION":97.7333,"RA_OF_ASC_NODE":90.6618,"ARG_OF_PERICENTER":19.9659,"MEAN_ANOMALY":340.1935,"EPHEMERIS_TYPE":0,"NORAD_CAT_ID":68997,"ELEMENT_SET_NO":999,"REV_AT_EPOCH":1050,"BSTAR":0.000078642,"MEAN_MOTION_DOT":0.00000716,"MEAN_MOTION_DDOT":0},{"OBJECT_NAME":"YAM-12","OBJECT_ID":"2026-100Z","EPOCH":"2026-07-13T03:37:07.117248","CLASSIFICATION_TYPE":"U","MEAN_MOTION":14.90421509,"ECCENTRICITY":0.0010114,"INCLINATION":97.7327,"RA_OF_ASC_NODE":90.9856,"ARG_OF_PERICENTER":357.355,"MEAN_ANOMALY":2.7613,"EPHEMERIS_TYPE":0,"NORAD_CAT_ID":69003,"ELEMENT_SET_NO":999,"REV_AT_EPOCH":1055,"BSTAR":0.00022593,"MEAN_MOTION_DOT":0.00002148,"MEAN_MOTION_DDOT":0},{"OBJECT_NAME":"YAM-14","OBJECT_ID":"2026-100AE","EPOCH":"2026-07-13T03:26:44.846304","CLASSIFICATION_TYPE":"U","MEAN_MOTION":14.90344498,"ECCENTRICITY":0.0006238,"INCLINATION":97.732,"RA_OF_ASC_NODE":91.0014,"ARG_OF_PERICENTER":42.5235,"MEAN_ANOMALY":317.6465,"EPHEMERIS_TYPE":0,"NORAD_CAT_ID":69008,"ELEMENT_SET_NO":999,"REV_AT_EPOCH":1055,"BSTAR":0.000089121,"MEAN_MOTION_DOT":0.00000812,"MEAN_MOTION_DDOT":0}]}
